NORAD_CAT_ID,OBJECT_NAME,OBJECT_TYPE,EPOCH,MEAN_MOTION,ECCENTRICITY,INCLINATION,RA_OF_ASC_NODE,ARG_OF_PERICENTER,MEAN_ANOMALY,BSTAR,MEAN_MOTION_DOT,MEAN_MOTION_DDOT,TLE_LINE0,TLE_LINE1,TLE_LINE2,SEMIMAJOR_AXIS,PERIOD,APOGEE,PERIGEE,DECAYED
49167.0,STARLINK-3054,PAYLOAD,2023-11-23 05:26:36,14.98334753,0.0002971,69.9997,245.9881,266.768,93.3139,0.0001468,1.659e-05,0.0,0 STARLINK-3054,1 49167U 21082AP  23327.22681643  .00001659  00000-0  14680-3 0  9992,2 49167  69.9997 245.9881 0002971 266.7680  93.3139 14.98334753121738,6950.178,96.107,574.108,569.978,0.0
49167.0,STARLINK-3054,PAYLOAD,2023-11-23 19:51:50,14.98319643,0.0002881,69.9998,244.4741,270.6136,89.4693,4.9622e-05,4.99e-06,0.0,0 STARLINK-3054,1 49167U 21082AP  23327.82767055  .00000499  00000-0  49622-4 0  9996,2 49167  69.9998 244.4741 0002881 270.6136  89.4693 14.98319643121831,6950.225,96.108,574.092,570.088,0.0
49167.0,STARLINK-3054,PAYLOAD,2023-11-23 21:27:58,14.98319243,0.0002937,69.9997,244.3057,271.5255,88.5568,4.3282e-05,4.23e-06,0.0,0 STARLINK-3054,1 49167U 21082AP  23327.89443146  .00000423  00000-0  43282-4 0  9998,2 49167  69.9997 244.3057 0002937 271.5255  88.5568 14.98319243121830,6950.226,96.108,574.132,570.05,0.0
49167.0,STARLINK-3054,PAYLOAD,2023-11-24 03:52:30,14.98325629,0.0002728,70.0,243.6323,273.0688,87.0159,7.8821e-05,8.48e-06,0.0,0 STARLINK-3054,1 49167U 21082AP  23328.16146847  .00000848  00000-0  78821-4 0  9995,2 49167  70.0000 243.6323 0002728 273.0688  87.0159 14.98325629121881,6950.206,96.107,573.967,570.175,0.0
49167.0,STARLINK-3054,PAYLOAD,2023-11-24 21:29:59,14.98327439,0.0002739,70.0,241.7804,262.8812,97.2036,0.00012129,1.354e-05,0.0,0 STARLINK-3054,1 49167U 21082AP  23328.89582733  .00001354  00000-0  12129-3 0  9994,2 49167  70.0000 241.7804 0002739 262.8812  97.2036 14.98327439121980,6950.201,96.107,573.969,570.162,0.0
49167.0,STARLINK-3054,PAYLOAD,2023-11-25 03:54:30,14.98339596,0.0002208,70.0001,241.1074,263.7224,96.3683,0.00022985,2.651e-05,0.0,0 STARLINK-3054,1 49167U 21082AP  23329.16285878  .00002651  00000-0  22985-3 0  9997,2 49167  70.0001 241.1074 0002208 263.7224  96.3683 14.98339596122034,6950.163,96.106,573.563,570.494,0.0
49167.0,STARLINK-3054,PAYLOAD,2023-11-25 21:31:59,14.98337045,0.0002558,70.0007,239.2562,263.663,96.4238,0.00032623,3.802e-05,0.0,0 STARLINK-3054,1 49167U 21082AP  23329.89721717  .00003802  00000-0  32623-3 0  9993,2 49167  70.0007 239.2562 0002558 263.6630  96.4238 14.98337045122133,6950.171,96.107,573.814,570.258,0.0
49167.0,STARLINK-3054,PAYLOAD,2023-11-26 02:20:23,14.98346369,0.0002325,70.0009,238.7525,246.8978,113.1936,0.00035104,4.1e-05,0.0,0 STARLINK-3054,1 49167U 21082AP  23330.09748954  .00004100  00000-0  35104-3 0  9998,2 49167  70.0009 238.7525 0002325 246.8978 113.1936 14.98346369122173,6950.142,96.106,573.623,570.391,0.0
49167.0,STARLINK-3054,PAYLOAD,2023-11-26 03:56:31,14.9835139,0.0002335,70.0027,238.5861,245.6593,114.4322,0.00048673,5.722e-05,0.0,0 STARLINK-3054,1 49167U 21082AP  23330.16425180  .00005722  00000-0  48673-3 0  9995,2 49167  70.0027 238.5861 0002335 245.6593 114.4322 14.98351390122178,6950.127,96.106,573.615,570.369,0.0
49167.0,STARLINK-3054,PAYLOAD,2023-11-26 19:57:53,14.9832087,0.0002566,70.0015,236.9002,253.614,106.4737,-0.00024665,-3.034e-05,0.0,0 STARLINK-3054,1 49167U 21082AP  23330.83186671 -.00003034  00000-0 -24665-3 0  9999,2 49167  70.0015 236.9002 0002566 253.6140 106.4737 14.98320870122289,6950.221,96.108,573.87,570.303,0.0
49167.0,STARLINK-3054,PAYLOAD,2023-11-26 21:34:01,14.98321012,0.0002751,69.9997,236.7319,257.8131,102.272,-0.00014061,-1.77e-05,0.0,0 STARLINK-3054,1 49167U 21082AP  23330.89863405 -.00001770  00000-0 -14061-3 0  9996,2 49167  69.9997 236.7319 0002751 257.8131 102.2720 14.98321012122281,6950.221,96.108,573.998,570.174,0.0
49167.0,STARLINK-3054,PAYLOAD,2023-11-27 03:58:34,14.98317721,0.0002762,69.9998,236.0586,255.5327,104.5525,-0.00015325,-1.92e-05,0.0,0 STARLINK-3054,1 49167U 21082AP  23331.16567806 -.00001920  00000-0 -15325-3 0  9994,2 49167  69.9998 236.0586 0002762 255.5327 104.5525 14.98317721122331,6950.231,96.108,574.016,570.176,0.0
49167.0,STARLINK-3054,PAYLOAD,2023-11-27 18:23:45,14.98360523,0.0002498,69.998,234.5425,258.4947,101.5931,-0.0005861,-7.084e-05,0.0,0 STARLINK-3054,1 49167U 21082AP  23331.76650377 -.00007084  00000-0 -58610-3 0  9997,2 49167  69.9980 234.5425 0002498 258.4947 101.5931 14.98360523122429,6950.099,96.105,573.7,570.227,0.0
49167.0,STARLINK-3054,PAYLOAD,2023-11-27 21:36:02,14.9833736,0.0002755,69.9994,234.2061,260.1202,99.9646,-5.451e-05,-7.43e-06,0.0,0 STARLINK-3054,1 49167U 21082AP  23331.90002469 -.00000743  00000-0 -54510-4 0  9997,2 49167  69.9994 234.2061 0002755 260.1202  99.9646 14.98337360122434,6950.17,96.107,573.95,570.12,0.0
49167.0,STARLINK-3054,PAYLOAD,2023-11-28 02:24:26,14.98335862,0.0002225,70.0023,233.7015,242.1618,117.9315,9.1748e-05,1.002e-05,0.0,0 STARLINK-3054,1 49167U 21082AP  23332.10030281  .00001002  00000-0  91748-4 0  9994,2 49167  70.0023 233.7015 0002225 242.1618 117.9315 14.98335862122479,6950.175,96.107,573.586,570.493,0.0
49167.0,STARLINK-3054,PAYLOAD,2023-11-28 04:00:34,14.98339718,0.0002329,70.0021,233.533,246.498,113.5934,0.00017095,1.948e-05,0.0,0 STARLINK-3054,1 49167U 21082AP  23332.16706072  .00001948  00000-0  17095-3 0  9999,2 49167  70.0021 233.5330 0002329 246.4980 113.5934 14.98339718122472,6950.163,96.106,573.647,570.409,0.0
49167.0,STARLINK-3054,PAYLOAD,2023-11-28 20:01:54,14.98326172,0.0002618,70.0013,231.852,231.0218,129.0708,0.00038945,4.556e-05,0.0,0 STARLINK-3054,1 49167U 21082AP  23332.83466272  .00004556  00000-0  38945-3 0  9993,2 49167  70.0013 231.8520 0002618 231.0218 129.0708 14.98326172122572,6950.205,96.107,573.889,570.25,0.0
49167.0,STARLINK-3054,PAYLOAD,2023-11-29 02:26:26,14.9833053,0.0002809,69.9999,231.1766,246.3274,113.7591,0.00038161,4.463e-05,0.0,0 STARLINK-3054,1 49167U 21082AP  23333.10169976  .00004463  00000-0  38161-3 0  9992,2 49167  69.9999 231.1766 0002809 246.3274 113.7591 14.98330530122629,6950.191,96.107,574.009,570.104,0.0
49167.0,STARLINK-3054,PAYLOAD,2023-11-30 02:28:28,14.98326786,0.0002734,70.0001,228.6532,276.4074,83.6774,3.1369e-05,2.81e-06,0.0,0 STARLINK-3054,1 49167U 21082AP  23334.10311099  .00000281  00000-0  31369-4 0  9996,2 49167  70.0001 228.6532 0002734 276.4074  83.6774 14.98326786122779,6950.203,96.107,573.968,570.168,0.0
49167.0,STARLINK-3054,PAYLOAD,2023-11-30 20:05:56,14.98337412,0.0002858,69.9997,226.8003,261.9084,98.1751,5.3297e-05,5.43e-06,0.0,0 STARLINK-3054,1 49167U 21082AP  23334.83746353  .00000543  00000-0  53297-4 0  9996,2 49167  69.9997 226.8003 0002858 261.9084  98.1751 14.98337412122886,6950.17,96.107,574.021,570.049,0.0
49167.0,STARLINK-3054,PAYLOAD,2023-12-01 02:30:29,14.98331217,0.000252,70.0002,226.1282,265.0346,95.0525,-2.8481e-05,-4.33e-06,0.0,0 STARLINK-3054,1 49167U 21082AP  23335.10450864 -.00000433  00000-0 -28481-4 0  9993,2 49167  70.0002 226.1282 0002520 265.0346  95.0525 14.98331217122927,6950.189,96.107,573.806,570.303,0.0
49167.0,STARLINK-3054,PAYLOAD,2023-12-01 20:07:56,14.98352027,0.000237,70.0022,224.2804,232.1767,127.9177,0.00032859,3.832e-05,0.0,0 STARLINK-3054,1 49167U 21082AP  23335.83884720  .00003832  00000-0  32859-3 0  9992,2 49167  70.0022 224.2804 0002370 232.1767 127.9177 14.98352027123036,6950.125,96.106,573.637,570.343,0.0
49167.0,STARLINK-3054,PAYLOAD,2023-12-01 21:44:05,14.98335439,0.0002717,70.0027,224.1134,209.899,150.2014,0.00011396,1.267e-05,0.0,0 STARLINK-3054,1 49167U 21082AP  23335.90562067  .00001267  00000-0  11396-3 0  9990,2 49167  70.0027 224.1134 0002717 209.8990 150.2014 14.98335439123037,6950.176,96.107,573.929,570.153,0.0
49167.0,STARLINK-3054,PAYLOAD,2023-12-02 02:32:28,14.98357431,0.0001803,70.0012,223.6032,261.2807,98.8148,0.00043364,5.088e-05,0.0,0 STARLINK-3054,1 49167U 21082AP  23336.10588203  .00005088  00000-0  43364-3 0  9998,2 49167  70.0012 223.6032 0001803 261.2807  98.8148 14.98357431123060,6950.108,96.105,573.226,570.72,0.0
49167.0,STARLINK-3054,PAYLOAD,2023-12-02 20:09:59,14.98321244,0.0002772,69.9999,221.7531,259.8261,100.2585,3.472e-05,3.21e-06,0.0,0 STARLINK-3054,1 49167U 21082AP  23336.84026913  .00000321  00000-0  34720-4 0  9996,2 49167  69.9999 221.7531 0002772 259.8261 100.2585 14.98321244123186,6950.22,96.108,574.012,570.158,0.0
49167.0,STARLINK-3054,PAYLOAD,2023-12-02 21:46:07,14.98318747,0.0002689,70.001,221.5858,222.254,137.8412,-7.6644e-05,-1.007e-05,0.0,0 STARLINK-3054,1 49167U 21082AP  23336.90703149 -.00001007  00000-0 -76644-4 0  9991,2 49167  70.0010 221.5858 0002689 222.2540 137.8412 14.98318747123183,6950.228,96.108,573.962,570.224,0.0
49167.0,STARLINK-3054,PAYLOAD,2023-12-03 02:34:32,14.98317922,0.0001827,70.0005,221.079,262.5844,97.5108,-7.4068e-05,-9.76e-06,0.0,0 STARLINK-3054,1 49167U 21082AP  23337.10731684 -.00000976  00000-0 -74068-4 0  9991,2 49167  70.0005 221.0790 0001827 262.5844  97.5108 14.98317922123216,6950.23,96.108,573.365,570.825,0.0
49167.0,STARLINK-3054,PAYLOAD,2023-12-03 20:11:59,14.98336644,0.0002333,69.9994,219.2231,259.6301,100.4595,-7.4117e-05,-9.77e-06,0.0,0 STARLINK-3054,1 49167U 21082AP  23337.84166367 -.00000977  00000-0 -74117-4 0  9998,2 49167  69.9994 219.2231 0002333 259.6301 100.4595 14.98336644123336,6950.172,96.107,573.659,570.416,0.0
49167.0,STARLINK-3054,PAYLOAD,2023-12-04 02:36:31,14.98342274,0.0002183,69.9995,218.553,263.0625,97.0285,-4.5823e-05,-6.4e-06,0.0,0 STARLINK-3054,1 49167U 21082AP  23338.10869868 -.00000640  00000-0 -45823-4 0  9993,2 49167  69.9995 218.5530 0002183 263.0625  97.0285 14.98342274123379,6950.155,96.106,573.537,570.503,0.0
49167.0,STARLINK-3054,PAYLOAD,2023-12-04 15:25:36,14.98326194,0.0002581,69.999,217.205,250.1045,109.9836,0.00029222,3.395e-05,0.0,0 STARLINK-3054,1 49167U 21082AP  23338.64277936  .00003395  00000-0  29222-3 0  9993,2 49167  69.9990 217.2050 0002581 250.1045 109.9836 14.98326194123448,6950.205,96.107,573.864,570.276,0.0
